[{"OBJECT_NAME":"STARLINK-30757","OBJECT_ID":"2023-162P","EPOCH":"2026-03-09T22:00:01.999584","MEAN_MOTION":15.27592819,"ECCENTRICITY":0.00015385,"INCLINATION":43.0003,"RA_OF_ASC_NODE":127.8742,"ARG_OF_PERICENTER":261.5076,"MEAN_ANOMALY":359.8957,"EPHEMERIS_TYPE":0,"CLASSIFICATION_TYPE":"U","NORAD_CAT_ID":58131,"ELEMENT_SET_NO":999,"REV_AT_EPOCH":578,"BSTAR":-0.0004740863,"MEAN_MOTION_DOT":-0.0001329,"MEAN_MOTION_DDOT":0},{"OBJECT_NAME":"OBJECT M","OBJECT_ID":"2024-205M","EPOCH":"2026-03-09T22:23:47.520096","MEAN_MOTION":15.27663844,"ECCENTRICITY":0.00036602,"INCLINATION":97.3915,"RA_OF_ASC_NODE":144.193,"ARG_OF_PERICENTER":310.2554,"MEAN_ANOMALY":49.8364,"EPHEMERIS_TYPE":0,"CLASSIFICATION_TYPE":"U","NORAD_CAT_ID":61905,"ELEMENT_SET_NO":999,"REV_AT_EPOCH":7334,"BSTAR":0.00036391974,"MEAN_MOTION_DOT":9.771e-5,"MEAN_MOTION_DDOT":0}]
